{
    "CCSDS_OMM_VERS": "3.0",
    "COMMENT": "GENERATED VIA SPACE-TRACK.ORG API",
    "CREATION_DATE": "2025-11-23T14:26:32",
    "ORIGINATOR": "18 SPCS",
    "OBJECT_NAME": "COSMOS 2466 (GLONASS)",
    "OBJECT_ID": "2010-041A",
    "CENTER_NAME": "EARTH",
    "REF_FRAME": "TEME",
    "TIME_SYSTEM": "UTC",
    "MEAN_ELEMENT_THEORY": "SGP4",
    "EPOCH": "2025-11-23T07:13:38.469216",
    "MEAN_MOTION": "2.13111995",
    "ECCENTRICITY": "0.00169450",
    "INCLINATION": "63.8907",
    "RA_OF_ASC_NODE": "197.1328",
    "ARG_OF_PERICENTER": "168.9412",
    "MEAN_ANOMALY": "8.8971",
    "EPHEMERIS_TYPE": "0",
    "CLASSIFICATION_TYPE": "U",
    "NORAD_CAT_ID": "37137",
    "ELEMENT_SET_NO": "999",
    "REV_AT_EPOCH": "11845",
    "BSTAR": "0.00000000000000",
    "MEAN_MOTION_DOT": "0.00000064",
    "MEAN_MOTION_DDOT": "0.0000000000000",
    "SEMIMAJOR_AXIS": "25507.227",
    "PERIOD": "675.701",
    "APOAPSIS": "19172.314",
    "PERIAPSIS": "19085.870",
    "OBJECT_TYPE": "PAYLOAD",
    "RCS_SIZE": "LARGE",
    "COUNTRY_CODE": "CIS",
    "LAUNCH_DATE": "2010-09-02",
    "SITE": "TTMTR",
    "DECAY_DATE": null,
    "FILE": "4895585",
    "GP_ID": "303301909",
    "TLE_LINE0": "0 COSMOS 2466 (GLONASS)",
    "TLE_LINE1": "1 37137U 10041A   25327.30113969  .00000064  00000-0  00000+0 0  9997",
    "TLE_LINE2": "2 37137  63.8907 197.1328 0016945 168.9412   8.8971  2.13111995118457"
}